[{"OBJECT_NAME":"STARLINK-5057","OBJECT_ID":"2022-119Y","EPOCH":"2026-03-09T21:26:51.021312","MEAN_MOTION":15.0882864,"ECCENTRICITY":0.00013037,"INCLINATION":53.2176,"RA_OF_ASC_NODE":313.3455,"ARG_OF_PERICENTER":81.8663,"MEAN_ANOMALY":278.2477,"EPHEMERIS_TYPE":0,"CLASSIFICATION_TYPE":"U","NORAD_CAT_ID":53908,"ELEMENT_SET_NO":999,"REV_AT_EPOCH":19185,"BSTAR":-8.2039681e-5,"MEAN_MOTION_DOT":-1.593e-5,"MEAN_MOTION_DDOT":0},{"OBJECT_NAME":"OBJECT H","OBJECT_ID":"2025-292H","EPOCH":"2026-03-09T22:24:53.558208","MEAN_MOTION":15.06373042,"ECCENTRICITY":0.00142604,"INCLINATION":97.6442,"RA_OF_ASC_NODE":145.7846,"ARG_OF_PERICENTER":348.9217,"MEAN_ANOMALY":11.1694,"EPHEMERIS_TYPE":0,"CLASSIFICATION_TYPE":"U","NORAD_CAT_ID":67000,"ELEMENT_SET_NO":999,"REV_AT_EPOCH":1338,"BSTAR":0.0005462937,"MEAN_MOTION_DOT":8.001e-5,"MEAN_MOTION_DDOT":0}]
